{"type": "FeatureCollection", "features": [{"type": "Feature", "geometry": {"type": "Point", "coordinates": [2.45770807, 48.8191155]}, "properties": {"route": "A86", "pr": "DS", "abs": null, "label": "A86 PRDS"}}, {"type": "Feature", "geometry": {"type": "Point", "coordinates": [2.45723668, 48.8184766]}, "properties": {"route": "A86", "pr": "FS", "abs": null, "label": "A86 PRFS"}}, {"type": "Feature", "geometry": {"type": "Point", "coordinates": [2.41293377, 48.86440166]}, "properties": {"route": "A3", "pr": "FS", "abs": null, "label": "A3 PRFS"}}, {"type": "Feature", "geometry": {"type": "Point", "coordinates": [2.41280045, 48.86461955]}, "properties": {"route": "A3", "pr": "DS", "abs": null, "label": "A3 PRDS"}}, {"type": "Feature", "geometry": {"type": "Point", "coordinates": [2.41348623, 48.86448801]}, "properties": {"route": "A3", "pr": "DS", "abs": null, "label": "A3 PRDS"}}, {"type": "Feature", "geometry": {"type": "Point", "coordinates": [2.23497023, 48.88854932]}, "properties": {"route": "N1013", "pr": "FS", "abs": null, "label": "N1013 PRFS"}}, {"type": "Feature", "geometry": {"type": "Point", "coordinates": [2.24362428, 48.89018174]}, "properties": {"route": "N1013", "pr": "DS", "abs": null, "label": "N1013 PRDS"}}, {"type": "Feature", "geometry": {"type": "Point", "coordinates": [2.24460106, 48.88950441]}, "properties": {"route": "N1013", "pr": "FS", "abs": null, "label": "N1013 PRFS"}}, {"type": "Feature", "geometry": {"type": "Point", "coordinates": [2.23497023, 48.88854932]}, "properties": {"route": "N1013", "pr": "DS", "abs": null, "label": "N1013 PRDS"}}, {"type": "Feature", "geometry": {"type": "Point", "coordinates": [2.22497243, 48.82788416]}, "properties": {"route": "N118", "pr": "DS", "abs": null, "label": "N118 PRDS"}}, {"type": "Feature", "geometry": {"type": "Point", "coordinates": [2.24534847, 48.88931307]}, "properties": {"route": "N192", "pr": "DS", "abs": null, "label": "N192 PRDS"}}, {"type": "Feature", "geometry": {"type": "Point", "coordinates": [2.24689496, 48.88922298]}, "properties": {"route": "N192", "pr": "DS", "abs": null, "label": "N192 PRDS"}}, {"type": "Feature", "geometry": {"type": "Point", "coordinates": [2.24148288, 48.84844005]}, "properties": {"route": "A13", "pr": "DS", "abs": null, "label": "A13 PRDS"}}, {"type": "Feature", "geometry": {"type": "Point", "coordinates": [2.2523282, 48.85181169]}, "properties": {"route": "A13", "pr": "FS", "abs": null, "label": "A13 PRFS"}}, {"type": "Feature", "geometry": {"type": "Point", "coordinates": [2.24163951, 48.84825848]}, "properties": {"route": "A13", "pr": "DS", "abs": null, "label": "A13 PRDS"}}, {"type": "Feature", "geometry": {"type": "Point", "coordinates": [2.33329905, 48.81842719]}, "properties": {"route": "A6A", "pr": "FS", "abs": null, "label": "A6A PRFS"}}, {"type": "Feature", "geometry": {"type": "Point", "coordinates": [2.33304763, 48.81817216]}, "properties": {"route": "A6A", "pr": "DS", "abs": null, "label": "A6A PRDS"}}, {"type": "Feature", "geometry": {"type": "Point", "coordinates": [2.22746381, 48.84838903]}, "properties": {"route": "A901302", "pr": "FS", "abs": null, "label": "A901302 PRFS"}}, {"type": "Feature", "geometry": {"type": "Point", "coordinates": [2.23067588, 48.84828921]}, "properties": {"route": "A901302", "pr": "DS", "abs": null, "label": "A901302 PRDS"}}, {"type": "Feature", "geometry": {"type": "Point", "coordinates": [2.24147879, 48.84844003]}, "properties": {"route": "A13", "pr": "1", "abs": 0, "label": "A13 PR1 (D)"}}, {"type": "Feature", "geometry": {"type": "Point", "coordinates": [2.45850384, 48.81920904]}, "properties": {"route": "A86", "pr": "35", "abs": 4247, "label": "A86 PR35+4247 (D)"}}, {"type": "Feature", "geometry": {"type": "Point", "coordinates": [2.24392152, 48.89009278]}, "properties": {"route": "N1013", "pr": "0", "abs": 0, "label": "N1013 PR0 (D)"}}, {"type": "Feature", "geometry": {"type": "Point", "coordinates": [2.23469801, 48.88841988]}, "properties": {"route": "N1013", "pr": "999", "abs": 702, "label": "N1013 PR999+702 (D)"}}, {"type": "Feature", "geometry": {"type": "Point", "coordinates": [2.22500072, 48.82781329]}, "properties": {"route": "N118", "pr": "0", "abs": 0, "label": "N118 PR0 (D)"}}, {"type": "Feature", "geometry": {"type": "Point", "coordinates": [2.2727566, 48.88092909]}, "properties": {"route": "N13", "pr": "7", "abs": 533, "label": "N13 PR7+533 (D)"}}, {"type": "Feature", "geometry": {"type": "Point", "coordinates": [2.26046445, 48.88482886]}, "properties": {"route": "N13", "pr": "8", "abs": 1533, "label": "N13 PR8+1533 (D)"}}, {"type": "Feature", "geometry": {"type": "Point", "coordinates": [2.25191398, 48.88759337]}, "properties": {"route": "N13", "pr": "8", "abs": 2175, "label": "N13 PR8+2175 (D)"}}, {"type": "Feature", "geometry": {"type": "Point", "coordinates": [2.27946104, 48.87878153]}, "properties": {"route": "N13", "pr": "0", "abs": 0, "label": "N13 PR0 (D)"}}, {"type": "Feature", "geometry": {"type": "Point", "coordinates": [2.25175945, 48.88743322]}, "properties": {"route": "N13", "pr": "8", "abs": 2136, "label": "N13 PR8+2136 (G)"}}, {"type": "Feature", "geometry": {"type": "Point", "coordinates": [2.24641829, 48.84799728]}, "properties": {"route": "A901301", "pr": "1", "abs": 410, "label": "A901301 PR1+410"}}, {"type": "Feature", "geometry": {"type": "Point", "coordinates": [2.2420469, 48.84826286]}, "properties": {"route": "A901301", "pr": "1", "abs": 0, "label": "A901301 PR1"}}, {"type": "Feature", "geometry": {"type": "Point", "coordinates": [2.22500016, 48.82830975]}, "properties": {"route": "N911801", "pr": "2", "abs": 555, "label": "N911801 PR2+555"}}, {"type": "Feature", "geometry": {"type": "Point", "coordinates": [2.22607487, 48.82638752]}, "properties": {"route": "N911801", "pr": "3", "abs": 235, "label": "N911801 PR3+235"}}, {"type": "Feature", "geometry": {"type": "Point", "coordinates": [2.22448933, 48.82849261]}, "properties": {"route": "N911801", "pr": "1", "abs": 0, "label": "N911801 PR1"}}, {"type": "Feature", "geometry": {"type": "Point", "coordinates": [2.22998165, 48.84842235]}, "properties": {"route": "A901302", "pr": "1", "abs": 0, "label": "A901302 PR1"}}, {"type": "Feature", "geometry": {"type": "Point", "coordinates": [2.22732344, 48.84866513]}, "properties": {"route": "A901302", "pr": "1", "abs": 505, "label": "A901302 PR1+505"}}, {"type": "Feature", "geometry": {"type": "Point", "coordinates": [2.25510763, 48.85462695]}, "properties": {"route": "C01", "pr": "13", "abs": 13000, "label": "C01 PR13+13000 (D)"}}, {"type": "Feature", "geometry": {"type": "Point", "coordinates": [2.26415507, 48.86115022]}, "properties": {"route": "C01", "pr": "14", "abs": 14000, "label": "C01 PR14+14000 (D)"}}, {"type": "Feature", "geometry": {"type": "Point", "coordinates": [2.39005935, 48.82700804]}, "properties": {"route": "C01", "pr": "0", "abs": 0, "label": "C01 PR0 (D)"}}, {"type": "Feature", "geometry": {"type": "Point", "coordinates": [2.37912895, 48.82178669]}, "properties": {"route": "C01", "pr": "1", "abs": 1000, "label": "C01 PR1+1000 (D)"}}, {"type": "Feature", "geometry": {"type": "Point", "coordinates": [2.36708286, 48.81766823]}, "properties": {"route": "C01", "pr": "2", "abs": 2000, "label": "C01 PR2+2000 (D)"}}, {"type": "Feature", "geometry": {"type": "Point", "coordinates": [2.35463206, 48.81746407]}, "properties": {"route": "C01", "pr": "3", "abs": 3000, "label": "C01 PR3+3000 (D)"}}, {"type": "Feature", "geometry": {"type": "Point", "coordinates": [2.34181313, 48.8166522]}, "properties": {"route": "C01", "pr": "4", "abs": 4000, "label": "C01 PR4+4000 (D)"}}, {"type": "Feature", "geometry": {"type": "Point", "coordinates": [2.32933698, 48.81929002]}, "properties": {"route": "C01", "pr": "5", "abs": 5000, "label": "C01 PR5+5000 (D)"}}, {"type": "Feature", "geometry": {"type": "Point", "coordinates": [2.31644723, 48.82210675]}, "properties": {"route": "C01", "pr": "6", "abs": 6000, "label": "C01 PR6+6000 (D)"}}, {"type": "Feature", "geometry": {"type": "Point", "coordinates": [2.30359842, 48.82501676]}, "properties": {"route": "C01", "pr": "7", "abs": 7000, "label": "C01 PR7+7000 (D)"}}, {"type": "Feature", "geometry": {"type": "Point", "coordinates": [2.29085227, 48.82808339]}, "properties": {"route": "C01", "pr": "8", "abs": 8000, "label": "C01 PR8+8000 (D)"}}, {"type": "Feature", "geometry": {"type": "Point", "coordinates": [2.27944738, 48.83295551]}, "properties": {"route": "C01", "pr": "9", "abs": 9000, "label": "C01 PR9+9000 (D)"}}, {"type": "Feature", "geometry": {"type": "Point", "coordinates": [2.26682334, 48.83494467]}, "properties": {"route": "C01", "pr": "10", "abs": 10000, "label": "C01 PR10+10000 (D)"}}, {"type": "Feature", "geometry": {"type": "Point", "coordinates": [2.25483619, 48.83787001]}, "properties": {"route": "C01", "pr": "11", "abs": 11000, "label": "C01 PR11+11000 (D)"}}, {"type": "Feature", "geometry": {"type": "Point", "coordinates": [2.25484625, 48.84669651]}, "properties": {"route": "C01", "pr": "12", "abs": 12000, "label": "C01 PR12+12000 (D)"}}, {"type": "Feature", "geometry": {"type": "Point", "coordinates": [2.27072497, 48.86894465]}, "properties": {"route": "C01", "pr": "15", "abs": 15000, "label": "C01 PR15+15000 (D)"}}, {"type": "Feature", "geometry": {"type": "Point", "coordinates": [2.27842666, 48.87628233]}, "properties": {"route": "C01", "pr": "16", "abs": 16000, "label": "C01 PR16+16000 (D)"}}, {"type": "Feature", "geometry": {"type": "Point", "coordinates": [2.28085165, 48.87830065]}, "properties": {"route": "C01", "pr": "16", "abs": 16290, "label": "C01 PR16+16290 (D)"}}, {"type": "Feature", "geometry": {"type": "Point", "coordinates": [2.28522965, 48.88388118]}, "properties": {"route": "C01", "pr": "17", "abs": 17000, "label": "C01 PR17+17000 (D)"}}, {"type": "Feature", "geometry": {"type": "Point", "coordinates": [2.29601008, 48.88917197]}, "properties": {"route": "C01", "pr": "18", "abs": 18000, "label": "C01 PR18+18000 (D)"}}, {"type": "Feature", "geometry": {"type": "Point", "coordinates": [2.30638528, 48.89494505]}, "properties": {"route": "C01", "pr": "19", "abs": 19000, "label": "C01 PR19+19000 (D)"}}, {"type": "Feature", "geometry": {"type": "Point", "coordinates": [2.3182916, 48.89928339]}, "properties": {"route": "C01", "pr": "20", "abs": 20000, "label": "C01 PR20+20000 (D)"}}, {"type": "Feature", "geometry": {"type": "Point", "coordinates": [2.33157232, 48.90064068]}, "properties": {"route": "C01", "pr": "21", "abs": 21000, "label": "C01 PR21+21000 (D)"}}, {"type": "Feature", "geometry": {"type": "Point", "coordinates": [2.34519885, 48.90091201]}, "properties": {"route": "C01", "pr": "22", "abs": 22000, "label": "C01 PR22+22000 (D)"}}, {"type": "Feature", "geometry": {"type": "Point", "coordinates": [2.35880176, 48.90078596]}, "properties": {"route": "C01", "pr": "23", "abs": 23000, "label": "C01 PR23+23000 (D)"}}, {"type": "Feature", "geometry": {"type": "Point", "coordinates": [2.3724299, 48.90059644]}, "properties": {"route": "C01", "pr": "24", "abs": 24000, "label": "C01 PR24+24000 (D)"}}, {"type": "Feature", "geometry": {"type": "Point", "coordinates": [2.38600841, 48.90044199]}, "properties": {"route": "C01", "pr": "25", "abs": 25000, "label": "C01 PR25+25000 (D)"}}, {"type": "Feature", "geometry": {"type": "Point", "coordinates": [2.39450602, 48.89521348]}, "properties": {"route": "C01", "pr": "26", "abs": 26000, "label": "C01 PR26+26000 (D)"}}, {"type": "Feature", "geometry": {"type": "Point", "coordinates": [2.39702928, 48.8863823]}, "properties": {"route": "C01", "pr": "27", "abs": 27000, "label": "C01 PR27+27000 (D)"}}, {"type": "Feature", "geometry": {"type": "Point", "coordinates": [2.40624503, 48.88017715]}, "properties": {"route": "C01", "pr": "28", "abs": 28000, "label": "C01 PR28+28000 (D)"}}, {"type": "Feature", "geometry": {"type": "Point", "coordinates": [2.41253119, 48.87229946]}, "properties": {"route": "C01", "pr": "29", "abs": 29000, "label": "C01 PR29+29000 (D)"}}, {"type": "Feature", "geometry": {"type": "Point", "coordinates": [2.41335419, 48.86338208]}, "properties": {"route": "C01", "pr": "30", "abs": 30000, "label": "C01 PR30+30000 (D)"}}, {"type": "Feature", "geometry": {"type": "Point", "coordinates": [2.41381064, 48.85443404]}, "properties": {"route": "C01", "pr": "31", "abs": 31000, "label": "C01 PR31+31000 (D)"}}, {"type": "Feature", "geometry": {"type": "Point", "coordinates": [2.41417808, 48.8456321]}, "properties": {"route": "C01", "pr": "32", "abs": 32000, "label": "C01 PR32+32000 (D)"}}, {"type": "Feature", "geometry": {"type": "Point", "coordinates": [2.41233656, 48.8367437]}, "properties": {"route": "C01", "pr": "33", "abs": 33000, "label": "C01 PR33+33000 (D)"}}, {"type": "Feature", "geometry": {"type": "Point", "coordinates": [2.40269671, 48.83075295]}, "properties": {"route": "C01", "pr": "34", "abs": 34000, "label": "C01 PR34+34000 (D)"}}, {"type": "Feature", "geometry": {"type": "Point", "coordinates": [2.39055755, 48.82715358]}, "properties": {"route": "C01", "pr": "35", "abs": 35000, "label": "C01 PR35+35000 (D)"}}, {"type": "Feature", "geometry": {"type": "Point", "coordinates": [2.39005935, 48.82700804]}, "properties": {"route": "C01", "pr": "999", "abs": 35040, "label": "C01 PR999+35040 (D)"}}, {"type": "Feature", "geometry": {"type": "Point", "coordinates": [2.39014171, 48.82683758]}, "properties": {"route": "C02", "pr": "0", "abs": 0, "label": "C02 PR0 (G)"}}, {"type": "Feature", "geometry": {"type": "Point", "coordinates": [2.37917191, 48.82161063]}, "properties": {"route": "C02", "pr": "1", "abs": 1000, "label": "C02 PR1+1000 (G)"}}, {"type": "Feature", "geometry": {"type": "Point", "coordinates": [2.36709064, 48.81747581]}, "properties": {"route": "C02", "pr": "2", "abs": 2000, "label": "C02 PR2+2000 (G)"}}, {"type": "Feature", "geometry": {"type": "Point", "coordinates": [2.35453714, 48.81732056]}, "properties": {"route": "C02", "pr": "3", "abs": 3000, "label": "C02 PR3+3000 (G)"}}, {"type": "Feature", "geometry": {"type": "Point", "coordinates": [2.34170508, 48.81647263]}, "properties": {"route": "C02", "pr": "4", "abs": 4000, "label": "C02 PR4+4000 (G)"}}, {"type": "Feature", "geometry": {"type": "Point", "coordinates": [2.32918035, 48.81918392]}, "properties": {"route": "C02", "pr": "5", "abs": 5000, "label": "C02 PR5+5000 (G)"}}, {"type": "Feature", "geometry": {"type": "Point", "coordinates": [2.31625631, 48.82202112]}, "properties": {"route": "C02", "pr": "6", "abs": 6000, "label": "C02 PR6+6000 (G)"}}, {"type": "Feature", "geometry": {"type": "Point", "coordinates": [2.30336931, 48.82493538]}, "properties": {"route": "C02", "pr": "7", "abs": 7000, "label": "C02 PR7+7000 (G)"}}, {"type": "Feature", "geometry": {"type": "Point", "coordinates": [2.29061297, 48.8280505]}, "properties": {"route": "C02", "pr": "8", "abs": 8000, "label": "C02 PR8+8000 (G)"}}, {"type": "Feature", "geometry": {"type": "Point", "coordinates": [2.27915905, 48.8329205]}, "properties": {"route": "C02", "pr": "9", "abs": 9000, "label": "C02 PR9+9000 (G)"}}, {"type": "Feature", "geometry": {"type": "Point", "coordinates": [2.2668436, 48.83476402]}, "properties": {"route": "C02", "pr": "10", "abs": 10000, "label": "C02 PR10+10000 (G)"}}, {"type": "Feature", "geometry": {"type": "Point", "coordinates": [2.25456081, 48.83788089]}, "properties": {"route": "C02", "pr": "11", "abs": 11000, "label": "C02 PR11+11000 (G)"}}, {"type": "Feature", "geometry": {"type": "Point", "coordinates": [2.25452836, 48.84672331]}, "properties": {"route": "C02", "pr": "12", "abs": 12000, "label": "C02 PR12+12000 (G)"}}, {"type": "Feature", "geometry": {"type": "Point", "coordinates": [2.25476984, 48.85470759]}, "properties": {"route": "C02", "pr": "13", "abs": 13000, "label": "C02 PR13+13000 (G)"}}, {"type": "Feature", "geometry": {"type": "Point", "coordinates": [2.26381466, 48.86122187]}, "properties": {"route": "C02", "pr": "14", "abs": 14000, "label": "C02 PR14+14000 (G)"}}, {"type": "Feature", "geometry": {"type": "Point", "coordinates": [2.270476, 48.86900609]}, "properties": {"route": "C02", "pr": "15", "abs": 15000, "label": "C02 PR15+15000 (G)"}}, {"type": "Feature", "geometry": {"type": "Point", "coordinates": [2.27817336, 48.87635904]}, "properties": {"route": "C02", "pr": "16", "abs": 16000, "label": "C02 PR16+16000 (G)"}}, {"type": "Feature", "geometry": {"type": "Point", "coordinates": [2.28063249, 48.87837308]}, "properties": {"route": "C02", "pr": "16", "abs": 16290, "label": "C02 PR16+16290 (G)"}}, {"type": "Feature", "geometry": {"type": "Point", "coordinates": [2.28497589, 48.88398939]}, "properties": {"route": "C02", "pr": "17", "abs": 17000, "label": "C02 PR17+17000 (G)"}}, {"type": "Feature", "geometry": {"type": "Point", "coordinates": [2.29581084, 48.88928232]}, "properties": {"route": "C02", "pr": "18", "abs": 18000, "label": "C02 PR18+18000 (G)"}}, {"type": "Feature", "geometry": {"type": "Point", "coordinates": [2.30622541, 48.89506913]}, "properties": {"route": "C02", "pr": "19", "abs": 19000, "label": "C02 PR19+19000 (G)"}}, {"type": "Feature", "geometry": {"type": "Point", "coordinates": [2.31817649, 48.89942753]}, "properties": {"route": "C02", "pr": "20", "abs": 20000, "label": "C02 PR20+20000 (G)"}}, {"type": "Feature", "geometry": {"type": "Point", "coordinates": [2.33150485, 48.90079589]}, "properties": {"route": "C02", "pr": "21", "abs": 21000, "label": "C02 PR21+21000 (G)"}}, {"type": "Feature", "geometry": {"type": "Point", "coordinates": [2.34518303, 48.90108549]}, "properties": {"route": "C02", "pr": "22", "abs": 22000, "label": "C02 PR22+22000 (G)"}}, {"type": "Feature", "geometry": {"type": "Point", "coordinates": [2.35884103, 48.90092016]}, "properties": {"route": "C02", "pr": "23", "abs": 23000, "label": "C02 PR23+23000 (G)"}}, {"type": "Feature", "geometry": {"type": "Point", "coordinates": [2.3725237, 48.90073633]}, "properties": {"route": "C02", "pr": "24", "abs": 24000, "label": "C02 PR24+24000 (G)"}}, {"type": "Feature", "geometry": {"type": "Point", "coordinates": [2.38615137, 48.90058032]}, "properties": {"route": "C02", "pr": "25", "abs": 25000, "label": "C02 PR25+25000 (G)"}}, {"type": "Feature", "geometry": {"type": "Point", "coordinates": [2.39478647, 48.89537497]}, "properties": {"route": "C02", "pr": "26", "abs": 26000, "label": "C02 PR26+26000 (G)"}}, {"type": "Feature", "geometry": {"type": "Point", "coordinates": [2.39724203, 48.88649939]}, "properties": {"route": "C02", "pr": "27", "abs": 27000, "label": "C02 PR27+27000 (G)"}}, {"type": "Feature", "geometry": {"type": "Point", "coordinates": [2.40644312, 48.88026447]}, "properties": {"route": "C02", "pr": "28", "abs": 28000, "label": "C02 PR28+28000 (G)"}}, {"type": "Feature", "geometry": {"type": "Point", "coordinates": [2.41274606, 48.87234728]}, "properties": {"route": "C02", "pr": "29", "abs": 29000, "label": "C02 PR29+29000 (G)"}}, {"type": "Feature", "geometry": {"type": "Point", "coordinates": [2.41364165, 48.86339607]}, "properties": {"route": "C02", "pr": "30", "abs": 30000, "label": "C02 PR30+30000 (G)"}}, {"type": "Feature", "geometry": {"type": "Point", "coordinates": [2.41403996, 48.85440189]}, "properties": {"route": "C02", "pr": "31", "abs": 31000, "label": "C02 PR31+31000 (G)"}}, {"type": "Feature", "geometry": {"type": "Point", "coordinates": [2.4143956, 48.84555582]}, "properties": {"route": "C02", "pr": "32", "abs": 32000, "label": "C02 PR32+32000 (G)"}}, {"type": "Feature", "geometry": {"type": "Point", "coordinates": [2.41252443, 48.8366349]}, "properties": {"route": "C02", "pr": "33", "abs": 33000, "label": "C02 PR33+33000 (G)"}}, {"type": "Feature", "geometry": {"type": "Point", "coordinates": [2.40285222, 48.83061522]}, "properties": {"route": "C02", "pr": "34", "abs": 34000, "label": "C02 PR34+34000 (G)"}}, {"type": "Feature", "geometry": {"type": "Point", "coordinates": [2.39062189, 48.82701001]}, "properties": {"route": "C02", "pr": "35", "abs": 35000, "label": "C02 PR35+35000 (G)"}}, {"type": "Feature", "geometry": {"type": "Point", "coordinates": [2.39014171, 48.82683758]}, "properties": {"route": "C02", "pr": "999", "abs": 35040, "label": "C02 PR999+35040 (G)"}}, {"type": "Feature", "geometry": {"type": "Point", "coordinates": [2.23469792, 48.88814738]}, "properties": {"route": "N1013", "pr": "999", "abs": 763, "label": "N1013 PR999+763 (G)"}}, {"type": "Feature", "geometry": {"type": "Point", "coordinates": [2.41245748, 48.86578071]}, "properties": {"route": "A3", "pr": "0", "abs": 0, "label": "A3 PR0 (G)"}}, {"type": "Feature", "geometry": {"type": "Point", "coordinates": [2.25235325, 48.85120568]}, "properties": {"route": "A13", "pr": "0", "abs": 0, "label": "A13 PR0 (G)"}}, {"type": "Feature", "geometry": {"type": "Point", "coordinates": [2.24163951, 48.84825848]}, "properties": {"route": "A13", "pr": "1", "abs": 0, "label": "A13 PR1 (G)"}}, {"type": "Feature", "geometry": {"type": "Point", "coordinates": [2.24534847, 48.88931307]}, "properties": {"route": "N1013", "pr": "0", "abs": 0, "label": "N1013 PR0 (G)"}}, {"type": "Feature", "geometry": {"type": "Point", "coordinates": [2.22500072, 48.82781329]}, "properties": {"route": "N118", "pr": "0", "abs": 0, "label": "N118 PR0 (G)"}}, {"type": "Feature", "geometry": {"type": "Point", "coordinates": [2.45850384, 48.81920904]}, "properties": {"route": "A86", "pr": "35", "abs": 4449, "label": "A86 PR35+4449 (G)"}}, {"type": "Feature", "geometry": {"type": "Point", "coordinates": [2.35871238, 48.90161914]}, "properties": {"route": "A1", "pr": "0", "abs": 0, "label": "A1 PR0 (G)"}}, {"type": "Feature", "geometry": {"type": "Point", "coordinates": [2.45633755, 48.81811007]}, "properties": {"route": "A4", "pr": "5", "abs": 5043, "label": "A4 PR5+5043 (D)"}}, {"type": "Feature", "geometry": {"type": "Point", "coordinates": [2.44339714, 48.81704413]}, "properties": {"route": "A4", "pr": "4", "abs": 4024, "label": "A4 PR4+4024 (D)"}}, {"type": "Feature", "geometry": {"type": "Point", "coordinates": [2.42989462, 48.81724043]}, "properties": {"route": "A4", "pr": "3", "abs": 3022, "label": "A4 PR3+3022 (D)"}}, {"type": "Feature", "geometry": {"type": "Point", "coordinates": [2.41619016, 48.81733799]}, "properties": {"route": "A4", "pr": "2", "abs": 2018, "label": "A4 PR2+2018 (D)"}}, {"type": "Feature", "geometry": {"type": "Point", "coordinates": [2.40336614, 48.81987209]}, "properties": {"route": "A4", "pr": "1", "abs": 1000, "label": "A4 PR1+1000 (D)"}}, {"type": "Feature", "geometry": {"type": "Point", "coordinates": [2.25486604, 48.84702761]}, "properties": {"route": "A13", "pr": "0", "abs": 0, "label": "A13 PR0 (D)"}}, {"type": "Feature", "geometry": {"type": "Point", "coordinates": [2.24331806, 48.84846876]}, "properties": {"route": "A13", "pr": "1", "abs": 1080, "label": "A13 PR1+1080 (D)"}}, {"type": "Feature", "geometry": {"type": "Point", "coordinates": [2.22971942, 48.84855376]}, "properties": {"route": "A13", "pr": "2", "abs": 870, "label": "A13 PR2+870 (D)"}}, {"type": "Feature", "geometry": {"type": "Point", "coordinates": [2.33287765, 48.81825845]}, "properties": {"route": "A6A", "pr": "0", "abs": 0, "label": "A6A PR0 (D)"}}, {"type": "Feature", "geometry": {"type": "Point", "coordinates": [2.35897698, 48.90162236]}, "properties": {"route": "A1", "pr": "0", "abs": 0, "label": "A1 PR0 (D)"}}, {"type": "Feature", "geometry": {"type": "Point", "coordinates": [2.23948475, 48.89169698]}, "properties": {"route": "N1014", "pr": "1", "abs": 1000, "label": "N1014 PR1+1000 (D)"}}, {"type": "Feature", "geometry": {"type": "Point", "coordinates": [2.25190459, 48.88758252]}, "properties": {"route": "N1014", "pr": "0", "abs": 0, "label": "N1014 PR0 (D)"}}, {"type": "Feature", "geometry": {"type": "Point", "coordinates": [2.23497607, 48.89297859]}, "properties": {"route": "N1014", "pr": "999", "abs": 1360, "label": "N1014 PR999+1360 (D)"}}, {"type": "Feature", "geometry": {"type": "Point", "coordinates": [2.41258694, 48.86457533]}, "properties": {"route": "A3", "pr": "0", "abs": 0, "label": "A3 PR0 (D)"}}, {"type": "Feature", "geometry": {"type": "Point", "coordinates": [2.43561069, 48.87296089]}, "properties": {"route": "A3", "pr": "2", "abs": 2057, "label": "A3 PR2+2057 (D)"}}, {"type": "Feature", "geometry": {"type": "Point", "coordinates": [2.42552732, 48.86678397]}, "properties": {"route": "A3", "pr": "1", "abs": 1013, "label": "A3 PR1+1013 (D)"}}, {"type": "Feature", "geometry": {"type": "Point", "coordinates": [2.45783934, 48.88311539]}, "properties": {"route": "A3", "pr": "4", "abs": 4069, "label": "A3 PR4+4069 (D)"}}, {"type": "Feature", "geometry": {"type": "Point", "coordinates": [2.4465397, 48.87818216]}, "properties": {"route": "A3", "pr": "3", "abs": 3067, "label": "A3 PR3+3067 (D)"}}, {"type": "Feature", "geometry": {"type": "Point", "coordinates": [2.22500072, 48.82781329]}, "properties": {"route": "N118", "pr": "0", "abs": 0, "label": "N118 PR0 (D)"}}, {"type": "Feature", "geometry": {"type": "Point", "coordinates": [2.24096358, 48.89410218]}, "properties": {"route": "N192", "pr": "1", "abs": 747, "label": "N192 PR1+747 (D)"}}, {"type": "Feature", "geometry": {"type": "Point", "coordinates": [2.24742703, 48.88902127]}, "properties": {"route": "N192", "pr": "0", "abs": 0, "label": "N192 PR0 (D)"}}, {"type": "Feature", "geometry": {"type": "Point", "coordinates": [2.24091041, 48.8945686]}, "properties": {"route": "N192", "pr": "999", "abs": 820, "label": "N192 PR999+820 (D)"}}, {"type": "Feature", "geometry": {"type": "Point", "coordinates": [2.22724656, 48.89538594]}, "properties": {"route": "A14", "pr": "2", "abs": 640, "label": "A14 PR2+640 (D)"}}, {"type": "Feature", "geometry": {"type": "Point", "coordinates": [2.23497607, 48.89297859]}, "properties": {"route": "A14", "pr": "0", "abs": 0, "label": "A14 PR0 (D)"}}, {"type": "Feature", "geometry": {"type": "Point", "coordinates": [2.43546469, 48.8730978]}, "properties": {"route": "A3", "pr": "2", "abs": 2026, "label": "A3 PR2+2026 (G)"}}, {"type": "Feature", "geometry": {"type": "Point", "coordinates": [2.4254125, 48.8669363]}, "properties": {"route": "A3", "pr": "1", "abs": 1023, "label": "A3 PR1+1023 (G)"}}, {"type": "Feature", "geometry": {"type": "Point", "coordinates": [2.45770291, 48.88325327]}, "properties": {"route": "A3", "pr": "4", "abs": 4041, "label": "A3 PR4+4041 (G)"}}, {"type": "Feature", "geometry": {"type": "Point", "coordinates": [2.44640051, 48.87832181]}, "properties": {"route": "A3", "pr": "3", "abs": 3036, "label": "A3 PR3+3036 (G)"}}, {"type": "Feature", "geometry": {"type": "Point", "coordinates": [2.45627327, 48.81826627]}, "properties": {"route": "A4", "pr": "5", "abs": 4998, "label": "A4 PR5+4998 (G)"}}, {"type": "Feature", "geometry": {"type": "Point", "coordinates": [2.44351514, 48.81721736]}, "properties": {"route": "A4", "pr": "4", "abs": 4006, "label": "A4 PR4+4006 (G)"}}, {"type": "Feature", "geometry": {"type": "Point", "coordinates": [2.4299214, 48.81740695]}, "properties": {"route": "A4", "pr": "3", "abs": 3000, "label": "A4 PR3+3000 (G)"}}, {"type": "Feature", "geometry": {"type": "Point", "coordinates": [2.41621541, 48.81763671]}, "properties": {"route": "A4", "pr": "2", "abs": 1994, "label": "A4 PR2+1994 (G)"}}, {"type": "Feature", "geometry": {"type": "Point", "coordinates": [2.40351837, 48.82001855]}, "properties": {"route": "A4", "pr": "1", "abs": 997, "label": "A4 PR1+997 (G)"}}, {"type": "Feature", "geometry": {"type": "Point", "coordinates": [2.24334374, 48.84829625]}, "properties": {"route": "A13", "pr": "1", "abs": 925, "label": "A13 PR1+925 (G)"}}, {"type": "Feature", "geometry": {"type": "Point", "coordinates": [2.22970055, 48.84844752]}, "properties": {"route": "A13", "pr": "2", "abs": 870, "label": "A13 PR2+870 (G)"}}, {"type": "Feature", "geometry": {"type": "Point", "coordinates": [2.24078354, 48.89400841]}, "properties": {"route": "N192", "pr": "1", "abs": 767, "label": "N192 PR1+767 (G)"}}, {"type": "Feature", "geometry": {"type": "Point", "coordinates": [2.22717035, 48.89528292]}, "properties": {"route": "A14", "pr": "2", "abs": 640, "label": "A14 PR2+640 (G)"}}, {"type": "Feature", "geometry": {"type": "Point", "coordinates": [2.23906571, 48.89116011]}, "properties": {"route": "N1014", "pr": "1", "abs": 998, "label": "N1014 PR1+998 (G)"}}, {"type": "Feature", "geometry": {"type": "Point", "coordinates": [2.27267363, 48.88081706]}, "properties": {"route": "N13", "pr": "7", "abs": 533, "label": "N13 PR7+533 (G)"}}, {"type": "Feature", "geometry": {"type": "Point", "coordinates": [2.26037349, 48.88470419]}, "properties": {"route": "N13", "pr": "8", "abs": 1533, "label": "N13 PR8+1533 (G)"}}, {"type": "Feature", "geometry": {"type": "Point", "coordinates": [2.35871105, 48.90161644]}, "properties": {"route": "A1", "pr": "0", "abs": 0, "label": "A1 PR0 (G)"}}, {"type": "Feature", "geometry": {"type": "Point", "coordinates": [2.22500072, 48.82781329]}, "properties": {"route": "N118", "pr": "0", "abs": 0, "label": "N118 PR0 (G)"}}, {"type": "Feature", "geometry": {"type": "Point", "coordinates": [2.25175945, 48.88743322]}, "properties": {"route": "N1014", "pr": "0", "abs": 0, "label": "N1014 PR0 (G)"}}, {"type": "Feature", "geometry": {"type": "Point", "coordinates": [2.23476332, 48.89269843]}, "properties": {"route": "N1014", "pr": "999", "abs": 1358, "label": "N1014 PR999+1358 (G)"}}, {"type": "Feature", "geometry": {"type": "Point", "coordinates": [2.39286544, 48.82501402]}, "properties": {"route": "A4", "pr": "0", "abs": 0, "label": "A4 PR0 (D)"}}, {"type": "Feature", "geometry": {"type": "Point", "coordinates": [2.39286544, 48.82501402]}, "properties": {"route": "A4", "pr": "0", "abs": 0, "label": "A4 PR0 (G)"}}, {"type": "Feature", "geometry": {"type": "Point", "coordinates": [2.24742703, 48.88902127]}, "properties": {"route": "N192", "pr": "0", "abs": 0, "label": "N192 PR0 (G)"}}, {"type": "Feature", "geometry": {"type": "Point", "coordinates": [2.24063701, 48.89461003]}, "properties": {"route": "N192", "pr": "999", "abs": 840, "label": "N192 PR999+840 (G)"}}, {"type": "Feature", "geometry": {"type": "Point", "coordinates": [2.23476332, 48.89269843]}, "properties": {"route": "A14", "pr": "0", "abs": 0, "label": "A14 PR0 (G)"}}, {"type": "Feature", "geometry": {"type": "Point", "coordinates": [2.27938193, 48.87868483]}, "properties": {"route": "N13", "pr": "0", "abs": 0, "label": "N13 PR0 (G)"}}, {"type": "Feature", "geometry": {"type": "Point", "coordinates": [2.33302394, 48.81853358]}, "properties": {"route": "A6A", "pr": "0", "abs": 0, "label": "A6A PR0 (G)"}}]}